CCSDS_OMM_VERS = 2.0
CREATION_DATE  = 
ORIGINATOR     = 

OBJECT_NAME    = STARLINK-36675
OBJECT_ID      = 2026-022R
CENTER_NAME    = EARTH
REF_FRAME      = TEME
TIME_SYSTEM    = UTC
MEAN_ELEMENT_THEORY = SGP/SGP4

EPOCH          = 2026-02-28T21:06:40.990176
MEAN_MOTION    = 15.75288026
ECCENTRICITY   = .00016199
INCLINATION    = 97.2834
RA_OF_ASC_NODE = 93.4459
ARG_OF_PERICENTER = 81.4992
MEAN_ANOMALY   = 278.6457

EPHEMERIS_TYPE = 0
CLASSIFICATION_TYPE = U
NORAD_CAT_ID   = 67663
ELEMENT_SET_NO = 999
REV_AT_EPOCH   = 416
BSTAR          = .16871494E-2
MEAN_MOTION_DOT = .260449E-2
MEAN_MOTION_DDOT = 0

CCSDS_OMM_VERS = 2.0
CREATION_DATE  = 
ORIGINATOR     = 

OBJECT_NAME    = STARLINK-36404
OBJECT_ID      = 2026-022S
CENTER_NAME    = EARTH
REF_FRAME      = TEME
TIME_SYSTEM    = UTC
MEAN_ELEMENT_THEORY = SGP/SGP4

EPOCH          = 2026-02-28T21:02:06.225216
MEAN_MOTION    = 15.75280639
ECCENTRICITY   = .0001552
INCLINATION    = 97.2834
RA_OF_ASC_NODE = 93.4490
ARG_OF_PERICENTER = 135.6371
MEAN_ANOMALY   = 224.5019

EPHEMERIS_TYPE = 0
CLASSIFICATION_TYPE = U
NORAD_CAT_ID   = 67664
ELEMENT_SET_NO = 999
REV_AT_EPOCH   = 416
BSTAR          = .1585039E-2
MEAN_MOTION_DOT = .244128E-2
MEAN_MOTION_DDOT = 0

CCSDS_OMM_VERS = 2.0
CREATION_DATE  = 
ORIGINATOR     = 

OBJECT_NAME    = STARLINK-36399
OBJECT_ID      = 2026-022T
CENTER_NAME    = EARTH
REF_FRAME      = TEME
TIME_SYSTEM    = UTC
MEAN_ELEMENT_THEORY = SGP/SGP4

EPOCH          = 2026-02-28T21:01:05.532672
MEAN_MOTION    = 15.75263758
ECCENTRICITY   = .00016196
INCLINATION    = 97.2833
RA_OF_ASC_NODE = 93.4504
ARG_OF_PERICENTER = 97.6922
MEAN_ANOMALY   = 262.4527

EPHEMERIS_TYPE = 0
CLASSIFICATION_TYPE = U
NORAD_CAT_ID   = 67665
ELEMENT_SET_NO = 999
REV_AT_EPOCH   = 416
BSTAR          = .19552529E-2
MEAN_MOTION_DOT = .303065E-2
MEAN_MOTION_DDOT = 0

CCSDS_OMM_VERS = 2.0
CREATION_DATE  = 
ORIGINATOR     = 

OBJECT_NAME    = STARLINK-36365
OBJECT_ID      = 2026-022U
CENTER_NAME    = EARTH
REF_FRAME      = TEME
TIME_SYSTEM    = UTC
MEAN_ELEMENT_THEORY = SGP/SGP4

EPOCH          = 2026-02-28T20:59:03.832224
MEAN_MOTION    = 15.75258849
ECCENTRICITY   = .00018376
INCLINATION    = 97.2831
RA_OF_ASC_NODE = 93.4527
ARG_OF_PERICENTER = 94.9544
MEAN_ANOMALY   = 265.1931

EPHEMERIS_TYPE = 0
CLASSIFICATION_TYPE = U
NORAD_CAT_ID   = 67666
ELEMENT_SET_NO = 999
REV_AT_EPOCH   = 416
BSTAR          = .17779015E-2
MEAN_MOTION_DOT = .274579E-2
MEAN_MOTION_DDOT = 0

CCSDS_OMM_VERS = 2.0
CREATION_DATE  = 
ORIGINATOR     = 

OBJECT_NAME    = STARLINK-36622
OBJECT_ID      = 2026-022V
CENTER_NAME    = EARTH
REF_FRAME      = TEME
TIME_SYSTEM    = UTC
MEAN_ELEMENT_THEORY = SGP/SGP4

EPOCH          = 2026-02-28T14:50:36.777408
MEAN_MOTION    = 15.75185334
ECCENTRICITY   = .00035899
INCLINATION    = 97.2828
RA_OF_ASC_NODE = 93.1876
ARG_OF_PERICENTER = 83.1079
MEAN_ANOMALY   = 277.0595

EPHEMERIS_TYPE = 0
CLASSIFICATION_TYPE = U
NORAD_CAT_ID   = 67667
ELEMENT_SET_NO = 999
REV_AT_EPOCH   = 412
BSTAR          = .14366931E-2
MEAN_MOTION_DOT = .219763E-2
MEAN_MOTION_DDOT = 0

CCSDS_OMM_VERS = 2.0
CREATION_DATE  = 
ORIGINATOR     = 

OBJECT_NAME    = STARLINK-36625
OBJECT_ID      = 2026-022W
CENTER_NAME    = EARTH
REF_FRAME      = TEME
TIME_SYSTEM    = UTC
MEAN_ELEMENT_THEORY = SGP/SGP4

EPOCH          = 2026-02-28T14:48:34.634592
MEAN_MOTION    = 15.75208225
ECCENTRICITY   = .0003063
INCLINATION    = 97.2814
RA_OF_ASC_NODE = 93.1891
ARG_OF_PERICENTER = 88.2175
MEAN_ANOMALY   = 271.9441

EPHEMERIS_TYPE = 0
CLASSIFICATION_TYPE = U
NORAD_CAT_ID   = 67668
ELEMENT_SET_NO = 999
REV_AT_EPOCH   = 412
BSTAR          = .15553425E-2
MEAN_MOTION_DOT = .238672E-2
MEAN_MOTION_DDOT = 0

CCSDS_OMM_VERS = 2.0
CREATION_DATE  = 
ORIGINATOR     = 

OBJECT_NAME    = STARLINK-36639
OBJECT_ID      = 2026-022X
CENTER_NAME    = EARTH
REF_FRAME      = TEME
TIME_SYSTEM    = UTC
MEAN_ELEMENT_THEORY = SGP/SGP4

EPOCH          = 2026-02-28T14:46:02.338176
MEAN_MOTION    = 15.75198889
ECCENTRICITY   = .00032676
INCLINATION    = 97.2838
RA_OF_ASC_NODE = 93.1921
ARG_OF_PERICENTER = 85.6884
MEAN_ANOMALY   = 274.4754

EPHEMERIS_TYPE = 0
CLASSIFICATION_TYPE = U
NORAD_CAT_ID   = 67669
ELEMENT_SET_NO = 999
REV_AT_EPOCH   = 412
BSTAR          = .11556234E-2
MEAN_MOTION_DOT = .175932E-2
MEAN_MOTION_DDOT = 0

CCSDS_OMM_VERS = 2.0
CREATION_DATE  = 
ORIGINATOR     = 

OBJECT_NAME    = STARLINK-36596
OBJECT_ID      = 2026-022Y
CENTER_NAME    = EARTH
REF_FRAME      = TEME
TIME_SYSTEM    = UTC
MEAN_ELEMENT_THEORY = SGP/SGP4

EPOCH          = 2026-02-28T23:52:22.138752
MEAN_MOTION    = 15.75261887
ECCENTRICITY   = .00033706
INCLINATION    = 97.2837
RA_OF_ASC_NODE = 93.5946
ARG_OF_PERICENTER = 2.7982
MEAN_ANOMALY   = 357.3302

EPHEMERIS_TYPE = 0
CLASSIFICATION_TYPE = U
NORAD_CAT_ID   = 67670
ELEMENT_SET_NO = 999
REV_AT_EPOCH   = 418
BSTAR          = .13706547E-2
MEAN_MOTION_DOT = .210105E-2
MEAN_MOTION_DDOT = 0

CCSDS_OMM_VERS = 2.0
CREATION_DATE  = 
ORIGINATOR     = 

OBJECT_NAME    = STARLINK-36297
OBJECT_ID      = 2026-022Z
CENTER_NAME    = EARTH
REF_FRAME      = TEME
TIME_SYSTEM    = UTC
MEAN_ELEMENT_THEORY = SGP/SGP4

EPOCH          = 2026-02-28T14:40:26.984352
MEAN_MOTION    = 15.75197332
ECCENTRICITY   = .00034341
INCLINATION    = 97.2813
RA_OF_ASC_NODE = 93.1967
ARG_OF_PERICENTER = 64.8811
MEAN_ANOMALY   = 295.2810

EPHEMERIS_TYPE = 0
CLASSIFICATION_TYPE = U
NORAD_CAT_ID   = 67671
ELEMENT_SET_NO = 999
REV_AT_EPOCH   = 412
BSTAR          = .15782751E-2
MEAN_MOTION_DOT = .24219E-2
MEAN_MOTION_DDOT = 0

CCSDS_OMM_VERS = 2.0
CREATION_DATE  = 
ORIGINATOR     = 

OBJECT_NAME    = STARLINK-36616
OBJECT_ID      = 2026-022AA
CENTER_NAME    = EARTH
REF_FRAME      = TEME
TIME_SYSTEM    = UTC
MEAN_ELEMENT_THEORY = SGP/SGP4

EPOCH          = 2026-02-28T23:51:22.352544
MEAN_MOTION    = 15.75176699
ECCENTRICITY   = .00019853
INCLINATION    = 97.2844
RA_OF_ASC_NODE = 93.5958
ARG_OF_PERICENTER = 11.7307
MEAN_ANOMALY   = 348.4004

EPHEMERIS_TYPE = 0
CLASSIFICATION_TYPE = U
NORAD_CAT_ID   = 67672
ELEMENT_SET_NO = 999
REV_AT_EPOCH   = 418
BSTAR          = .14437573E-2
MEAN_MOTION_DOT = .220752E-2
MEAN_MOTION_DDOT = 0

CCSDS_OMM_VERS = 2.0
CREATION_DATE  = 
ORIGINATOR     = 

OBJECT_NAME    = COSMOS 2600
OBJECT_ID      = 2026-023A
CENTER_NAME    = EARTH
REF_FRAME      = TEME
TIME_SYSTEM    = UTC
MEAN_ELEMENT_THEORY = SGP/SGP4

EPOCH          = 2026-02-28T07:05:07.619712
MEAN_MOTION    = 15.83528492
ECCENTRICITY   = .00032481
INCLINATION    = 96.6452
RA_OF_ASC_NODE = 135.2352
ARG_OF_PERICENTER = 47.0444
MEAN_ANOMALY   = 313.1099

EPHEMERIS_TYPE = 0
CLASSIFICATION_TYPE = U
NORAD_CAT_ID   = 67674
ELEMENT_SET_NO = 999
REV_AT_EPOCH   = 356
BSTAR          = .32745834E-3
MEAN_MOTION_DOT = .71571E-3
MEAN_MOTION_DDOT = 0

CCSDS_OMM_VERS = 2.0
CREATION_DATE  = 
ORIGINATOR     = 

OBJECT_NAME    = 2026-023B
OBJECT_ID      = 2026-023B
CENTER_NAME    = EARTH
REF_FRAME      = TEME
TIME_SYSTEM    = UTC
MEAN_ELEMENT_THEORY = SGP/SGP4

EPOCH          = 2026-02-28T23:32:42.555840
MEAN_MOTION    = 15.22749834
ECCENTRICITY   = .00189701
INCLINATION    = 96.6379
RA_OF_ASC_NODE = 133.9382
ARG_OF_PERICENTER = 161.4279
MEAN_ANOMALY   = 198.7657

EPHEMERIS_TYPE = 0
CLASSIFICATION_TYPE = U
NORAD_CAT_ID   = 67675
ELEMENT_SET_NO = 999
REV_AT_EPOCH   = 353
BSTAR          = .5793957E-3
MEAN_MOTION_DOT = .13543E-3
MEAN_MOTION_DDOT = 0

