STARLINK-36675          
1 67663U 26022R   26059.87964109  .00260449  00000+0  16871-2 0  9995
2 67663  97.2834  93.4459 0001619  81.4992 278.6457 15.75288026  4161
STARLINK-36404          
1 67664U 26022S   26059.87646094  .00244128  00000+0  15850-2 0  9998
2 67664  97.2834  93.4490 0001552 135.6371 224.5019 15.75280639  4162
STARLINK-36399          
1 67665U 26022T   26059.87575848  .00303065  00000+0  19553-2 0  9997
2 67665  97.2833  93.4504 0001619  97.6922 262.4527 15.75263758  4169
STARLINK-36365          
1 67666U 26022U   26059.87434991  .00274579  00000+0  17779-2 0  9996
2 67666  97.2831  93.4527 0001837  94.9544 265.1931 15.75258849  4169
STARLINK-36622          
1 67667U 26022V   26059.61848122  .00219763  00000+0  14367-2 0  9998
2 67667  97.2828  93.1876 0003589  83.1079 277.0595 15.75185334  4121
STARLINK-36625          
1 67668U 26022W   26059.61706753  .00238672  00000+0  15553-2 0  9990
2 67668  97.2814  93.1891 0003063  88.2175 271.9441 15.75208225  4122
STARLINK-36639          
1 67669U 26022X   26059.61530484  .00175932  00000+0  11556-2 0  9995
2 67669  97.2838  93.1921 0003267  85.6884 274.4754 15.75198889  4126
STARLINK-36596          
1 67670U 26022Y   26059.99470068  .00210105  00000+0  13707-2 0  9991
2 67670  97.2837  93.5946 0003370   2.7982 357.3302 15.75261887  4187
STARLINK-36297          
1 67671U 26022Z   26059.61142343  .00242190  00000+0  15783-2 0  9998
2 67671  97.2813  93.1967 0003434  64.8811 295.2810 15.75197332  4123
STARLINK-36616          
1 67672U 26022AA  26059.99400871  .00220752  00000+0  14438-2 0  9999
2 67672  97.2844  93.5958 0001985  11.7307 348.4004 15.75176699  4187
COSMOS 2600             
1 67674U 26023A   26059.29522708  .00071571  00000+0  32746-3 0  9995
2 67674  96.6452 135.2352 0003248  47.0444 313.1099 15.83528492  3562
2026-023B               
1 67675U 26023B   26059.98104810  .00013543  00000+0  57940-3 0  9990
2 67675  96.6379 133.9382 0018970 161.4279 198.7657 15.22749834  3536
